<?xml version="1.0" encoding="UTF-8"?>
<ndm xmlns:xsi="http://www.w3.org/2001/XMLSchema-instance" xsi:noNamespaceSchemaLocation="https://sanaregistry.org/r/ndmxml_unqualified/ndmxml-2.0.0-master-2.0.xsd">
<omm id="CCSDS_OMM_VERS" version="2.0">
<header><CREATION_DATE/><ORIGINATOR/></header><body><segment><metadata><OBJECT_NAME>ORBCOMM FM05</OBJECT_NAME><OBJECT_ID>1997-084F</OBJECT_ID><CENTER_NAME>EARTH</CENTER_NAME><REF_FRAME>TEME</REF_FRAME><TIME_SYSTEM>UTC</TIME_SYSTEM><MEAN_ELEMENT_THEORY>SGP4</MEAN_ELEMENT_THEORY></metadata><data><meanElements><EPOCH>2024-12-01T21:07:33.044448</EPOCH><MEAN_MOTION>14.44593909</MEAN_MOTION><ECCENTRICITY>.0002203</ECCENTRICITY><INCLINATION>45.0140</INCLINATION><RA_OF_ASC_NODE>234.5057</RA_OF_ASC_NODE><ARG_OF_PERICENTER>328.0882</ARG_OF_PERICENTER><MEAN_ANOMALY>31.9835</MEAN_ANOMALY></meanElements><tleParameters><EPHEMERIS_TYPE>0</EPHEMERIS_TYPE><CLASSIFICATION_TYPE>U</CLASSIFICATION_TYPE><NORAD_CAT_ID>25117</NORAD_CAT_ID><ELEMENT_SET_NO>999</ELEMENT_SET_NO><REV_AT_EPOCH>41206</REV_AT_EPOCH><BSTAR>.12986E-2</BSTAR><MEAN_MOTION_DOT>.4395E-4</MEAN_MOTION_DOT><MEAN_MOTION_DDOT>0</MEAN_MOTION_DDOT></tleParameters></data></segment></body></omm>
<omm id="CCSDS_OMM_VERS" version="2.0">
<header><CREATION_DATE/><ORIGINATOR/></header><body><segment><metadata><OBJECT_NAME>ORBCOMM FM06</OBJECT_NAME><OBJECT_ID>1997-084G</OBJECT_ID><CENTER_NAME>EARTH</CENTER_NAME><REF_FRAME>TEME</REF_FRAME><TIME_SYSTEM>UTC</TIME_SYSTEM><MEAN_ELEMENT_THEORY>SGP4</MEAN_ELEMENT_THEORY></metadata><data><meanElements><EPOCH>2024-12-01T03:43:08.694336</EPOCH><MEAN_MOTION>14.44764563</MEAN_MOTION><ECCENTRICITY>.0001515</ECCENTRICITY><INCLINATION>45.0134</INCLINATION><RA_OF_ASC_NODE>237.9690</RA_OF_ASC_NODE><ARG_OF_PERICENTER>344.3456</ARG_OF_PERICENTER><MEAN_ANOMALY>131.0750</MEAN_ANOMALY></meanElements><tleParameters><EPHEMERIS_TYPE>0</EPHEMERIS_TYPE><CLASSIFICATION_TYPE>U</CLASSIFICATION_TYPE><NORAD_CAT_ID>25118</NORAD_CAT_ID><ELEMENT_SET_NO>999</ELEMENT_SET_NO><REV_AT_EPOCH>41289</REV_AT_EPOCH><BSTAR>.16004E-2</BSTAR><MEAN_MOTION_DOT>.547E-4</MEAN_MOTION_DOT><MEAN_MOTION_DDOT>0</MEAN_MOTION_DDOT></tleParameters></data></segment></body></omm>
<omm id="CCSDS_OMM_VERS" version="2.0">
<header><CREATION_DATE/><ORIGINATOR/></header><body><segment><metadata><OBJECT_NAME>ORBCOMM FM07</OBJECT_NAME><OBJECT_ID>1997-084H</OBJECT_ID><CENTER_NAME>EARTH</CENTER_NAME><REF_FRAME>TEME</REF_FRAME><TIME_SYSTEM>UTC</TIME_SYSTEM><MEAN_ELEMENT_THEORY>SGP4</MEAN_ELEMENT_THEORY></metadata><data><meanElements><EPOCH>2024-12-01T16:36:27.108288</EPOCH><MEAN_MOTION>14.44636513</MEAN_MOTION><ECCENTRICITY>.0002776</ECCENTRICITY><INCLINATION>45.0126</INCLINATION><RA_OF_ASC_NODE>236.0878</RA_OF_ASC_NODE><ARG_OF_PERICENTER>312.0483</ARG_OF_PERICENTER><MEAN_ANOMALY>48.0131</MEAN_ANOMALY></meanElements><tleParameters><EPHEMERIS_TYPE>0</EPHEMERIS_TYPE><CLASSIFICATION_TYPE>U</CLASSIFICATION_TYPE><NORAD_CAT_ID>25119</NORAD_CAT_ID><ELEMENT_SET_NO>999</ELEMENT_SET_NO><REV_AT_EPOCH>41294</REV_AT_EPOCH><BSTAR>.15008E-2</BSTAR><MEAN_MOTION_DOT>.5107E-4</MEAN_MOTION_DOT><MEAN_MOTION_DDOT>0</MEAN_MOTION_DDOT></tleParameters></data></segment></body></omm>
<omm id="CCSDS_OMM_VERS" version="2.0">
<header><CREATION_DATE/><ORIGINATOR/></header><body><segment><metadata><OBJECT_NAME>ORBCOMM FM03</OBJECT_NAME><OBJECT_ID>1998-007B</OBJECT_ID><CENTER_NAME>EARTH</CENTER_NAME><REF_FRAME>TEME</REF_FRAME><TIME_SYSTEM>UTC</TIME_SYSTEM><MEAN_ELEMENT_THEORY>SGP4</MEAN_ELEMENT_THEORY></metadata><data><meanElements><EPOCH>2024-12-01T18:58:12.560160</EPOCH><MEAN_MOTION>14.33496051</MEAN_MOTION><ECCENTRICITY>.004861</ECCENTRICITY><INCLINATION>107.9672</INCLINATION><RA_OF_ASC_NODE>90.3322</RA_OF_ASC_NODE><ARG_OF_PERICENTER>235.2631</ARG_OF_PERICENTER><MEAN_ANOMALY>124.3925</MEAN_ANOMALY></meanElements><tleParameters><EPHEMERIS_TYPE>0</EPHEMERIS_TYPE><CLASSIFICATION_TYPE>U</CLASSIFICATION_TYPE><NORAD_CAT_ID>25158</NORAD_CAT_ID><ELEMENT_SET_NO>999</ELEMENT_SET_NO><REV_AT_EPOCH>39574</REV_AT_EPOCH><BSTAR>.15778E-2</BSTAR><MEAN_MOTION_DOT>.4298E-4</MEAN_MOTION_DOT><MEAN_MOTION_DDOT>0</MEAN_MOTION_DDOT></tleParameters></data></segment></body></omm>
<omm id="CCSDS_OMM_VERS" version="2.0">
<header><CREATION_DATE/><ORIGINATOR/></header><body><segment><metadata><OBJECT_NAME>ORBCOMM FM04</OBJECT_NAME><OBJECT_ID>1998-007C</OBJECT_ID><CENTER_NAME>EARTH</CENTER_NAME><REF_FRAME>TEME</REF_FRAME><TIME_SYSTEM>UTC</TIME_SYSTEM><MEAN_ELEMENT_THEORY>SGP4</MEAN_ELEMENT_THEORY></metadata><data><meanElements><EPOCH>2024-12-02T03:49:13.143360</EPOCH><MEAN_MOTION>14.33769337</MEAN_MOTION><ECCENTRICITY>.0044199</ECCENTRICITY><INCLINATION>107.9660</INCLINATION><RA_OF_ASC_NODE>94.1711</RA_OF_ASC_NODE><ARG_OF_PERICENTER>232.4501</ARG_OF_PERICENTER><MEAN_ANOMALY>127.2619</MEAN_ANOMALY></meanElements><tleParameters><EPHEMERIS_TYPE>0</EPHEMERIS_TYPE><CLASSIFICATION_TYPE>U</CLASSIFICATION_TYPE><NORAD_CAT_ID>25159</NORAD_CAT_ID><ELEMENT_SET_NO>999</ELEMENT_SET_NO><REV_AT_EPOCH>39608</REV_AT_EPOCH><BSTAR>.151E-2</BSTAR><MEAN_MOTION_DOT>.4121E-4</MEAN_MOTION_DOT><MEAN_MOTION_DDOT>0</MEAN_MOTION_DDOT></tleParameters></data></segment></body></omm>
<omm id="CCSDS_OMM_VERS" version="2.0">
<header><CREATION_DATE/><ORIGINATOR/></header><body><segment><metadata><OBJECT_NAME>ORBCOMM FM17</OBJECT_NAME><OBJECT_ID>1998-046A</OBJECT_ID><CENTER_NAME>EARTH</CENTER_NAME><REF_FRAME>TEME</REF_FRAME><TIME_SYSTEM>UTC</TIME_SYSTEM><MEAN_ELEMENT_THEORY>SGP4</MEAN_ELEMENT_THEORY></metadata><data><meanElements><EPOCH>2024-12-01T20:32:10.478976</EPOCH><MEAN_MOTION>14.34289853</MEAN_MOTION><ECCENTRICITY>.0002676</ECCENTRICITY><INCLINATION>44.9928</INCLINATION><RA_OF_ASC_NODE>108.3919</RA_OF_ASC_NODE><ARG_OF_PERICENTER>266.8570</ARG_OF_PERICENTER><MEAN_ANOMALY>93.1971</MEAN_ANOMALY></meanElements><tleParameters><EPHEMERIS_TYPE>0</EPHEMERIS_TYPE><CLASSIFICATION_TYPE>U</CLASSIFICATION_TYPE><NORAD_CAT_ID>25413</NORAD_CAT_ID><ELEMENT_SET_NO>999</ELEMENT_SET_NO><REV_AT_EPOCH>37483</REV_AT_EPOCH><BSTAR>.12206E-2</BSTAR><MEAN_MOTION_DOT>.3319E-4</MEAN_MOTION_DOT><MEAN_MOTION_DDOT>0</MEAN_MOTION_DDOT></tleParameters></data></segment></body></omm>
<omm id="CCSDS_OMM_VERS" version="2.0">
<header><CREATION_DATE/><ORIGINATOR/></header><body><segment><metadata><OBJECT_NAME>ORBCOMM FM18</OBJECT_NAME><OBJECT_ID>1998-046B</OBJECT_ID><CENTER_NAME>EARTH</CENTER_NAME><REF_FRAME>TEME</REF_FRAME><TIME_SYSTEM>UTC</TIME_SYSTEM><MEAN_ELEMENT_THEORY>SGP4</MEAN_ELEMENT_THEORY></metadata><data><meanElements><EPOCH>2024-12-01T20:20:58.429536</EPOCH><MEAN_MOTION>14.37442890</MEAN_MOTION><ECCENTRICITY>.0004421</ECCENTRICITY><INCLINATION>44.9942</INCLINATION><RA_OF_ASC_NODE>30.8908</RA_OF_ASC_NODE><ARG_OF_PERICENTER>335.0347</ARG_OF_PERICENTER><MEAN_ANOMALY>25.0286</MEAN_ANOMALY></meanElements><tleParameters><EPHEMERIS_TYPE>0</EPHEMERIS_TYPE><CLASSIFICATION_TYPE>U</CLASSIFICATION_TYPE><NORAD_CAT_ID>25414</NORAD_CAT_ID><ELEMENT_SET_NO>999</ELEMENT_SET_NO><REV_AT_EPOCH>37584</REV_AT_EPOCH><BSTAR>.14189E-2</BSTAR><MEAN_MOTION_DOT>.4144E-4</MEAN_MOTION_DOT><MEAN_MOTION_DDOT>0</MEAN_MOTION_DDOT></tleParameters></data></segment></body></omm>
<omm id="CCSDS_OMM_VERS" version="2.0">
<header><CREATION_DATE/><ORIGINATOR/></header><body><segment><metadata><OBJECT_NAME>ORBCOMM FM19</OBJECT_NAME><OBJECT_ID>1998-046C</OBJECT_ID><CENTER_NAME>EARTH</CENTER_NAME><REF_FRAME>TEME</REF_FRAME><TIME_SYSTEM>UTC</TIME_SYSTEM><MEAN_ELEMENT_THEORY>SGP4</MEAN_ELEMENT_THEORY></metadata><data><meanElements><EPOCH>2024-12-01T20:54:21.173760</EPOCH><MEAN_MOTION>14.37269347</MEAN_MOTION><ECCENTRICITY>.0003732</ECCENTRICITY><INCLINATION>44.9952</INCLINATION><RA_OF_ASC_NODE>32.4749</RA_OF_ASC_NODE><ARG_OF_PERICENTER>319.0505</ARG_OF_PERICENTER><MEAN_ANOMALY>211.5838</MEAN_ANOMALY></meanElements><tleParameters><EPHEMERIS_TYPE>0</EPHEMERIS_TYPE><CLASSIFICATION_TYPE>U</CLASSIFICATION_TYPE><NORAD_CAT_ID>25415</NORAD_CAT_ID><ELEMENT_SET_NO>999</ELEMENT_SET_NO><REV_AT_EPOCH>37580</REV_AT_EPOCH><BSTAR>.14412E-2</BSTAR><MEAN_MOTION_DOT>.4196E-4</MEAN_MOTION_DOT><MEAN_MOTION_DDOT>0</MEAN_MOTION_DDOT></tleParameters></data></segment></body></omm>

</ndm>
