ORBCOMM FM05            
1 25117U 97084F   24336.88024357  .00004395  00000+0  12986-2 0  9997
2 25117  45.0140 234.5057 0002203 328.0882  31.9835 14.44593909412066
ORBCOMM FM06            
1 25118U 97084G   24336.15496174  .00005470  00000+0  16004-2 0  9998
2 25118  45.0134 237.9690 0001515 344.3456 131.0750 14.44764563412898
ORBCOMM FM07            
1 25119U 97084H   24336.69198042  .00005107  00000+0  15008-2 0  9991
2 25119  45.0126 236.0878 0002776 312.0483  48.0131 14.44636513412949
ORBCOMM FM03            
1 25158U 98007B   24336.79042315  .00004298  00000+0  15778-2 0  9996
2 25158 107.9672  90.3322 0048610 235.2631 124.3925 14.33496051395745
ORBCOMM FM04            
1 25159U 98007C   24337.15917990  .00004121  00000+0  15100-2 0  9992
2 25159 107.9660  94.1711 0044199 232.4501 127.2619 14.33769337396080
ORBCOMM FM17            
1 25413U 98046A   24336.85567684  .00003319  00000+0  12206-2 0  9997
2 25413  44.9928 108.3919 0002676 266.8570  93.1971 14.34289853374831
ORBCOMM FM18            
1 25414U 98046B   24336.84789849  .00004144  00000+0  14189-2 0  9995
2 25414  44.9942  30.8908 0004421 335.0347  25.0286 14.37442890375846
ORBCOMM FM19            
1 25415U 98046C   24336.87107840  .00004196  00000+0  14412-2 0  9990
2 25415  44.9952  32.4749 0003732 319.0505 211.5838 14.37269347375806
